OBJECT_NAME,OBJECT_ID,EPOCH,MEAN_MOTION,ECCENTRICITY,INCLINATION,RA_OF_ASC_NODE,ARG_OF_PERICENTER,MEAN_ANOMALY,EPHEMERIS_TYPE,CLASSIFICATION_TYPE,NORAD_CAT_ID,ELEMENT_SET_NO,REV_AT_EPOCH,BSTAR,MEAN_MOTION_DOT,MEAN_MOTION_DDOT
ONEWEB-0572,2023-004M,2026-07-14T20:33:09.224064,13.17651337,.00020144,87.9144,0.3603,91.9359,268.2004,0,U,55151,999,17112,-.445535E-4,-.4E-7,0
ONEWEB-0573,2023-004N,2026-07-14T21:15:29.685600,13.18685185,.0002778,87.9186,329.9598,96.2352,263.9097,0,U,55152,999,17334,-.64350578E-3,-.241E-5,0
ONEWEB-0588,2023-004P,2026-07-14T21:05:48.312960,13.18686189,.00021646,87.9185,329.9609,85.9903,274.1477,0,U,55153,999,17334,.34005542E-4,.26E-6,0
ONEWEB-0598,2023-004Q,2026-07-14T22:22:29.735904,13.11418667,.00025068,87.8885,15.5431,99.1861,260.9551,0,U,55154,999,16953,.12444338E-3,.57E-6,0
ONEWEB-0599,2023-004R,2026-07-14T21:26:36.074112,13.17650292,.00018722,87.9144,0.3515,100.2777,259.8566,0,U,55155,999,17113,.10309336E-4,.17E-6,0
ONEWEB-0614,2023-004S,2026-07-14T22:15:09.791424,13.11418413,.00017805,87.8883,15.5527,83.1589,276.9742,0,U,55156,999,16947,-.51677661E-3,-.17E-5,0
ONEWEB-0616,2023-004T,2026-07-14T22:27:20.981664,13.17650927,.00017715,87.9146,0.3472,122.4210,237.7093,0,U,55157,999,17135,-.12920654E-3,-.37E-6,0
ONEWEB-0617,2023-004U,2026-07-14T21:58:03.376704,13.11418465,.00019248,87.8886,15.5475,77.7087,282.4257,0,U,55158,999,16949,-.14480728E-2,-.501E-5,0
ONEWEB-0618,2023-004V,2026-07-14T21:33:48.978720,15.13369888,.00121241,86.9107,166.3827,175.8824,184.2518,0,U,55159,999,18645,.1070736E-3,.1946E-4,0
ONEWEB-0619,2023-004W,2026-07-14T21:24:10.277568,13.17650490,.00014449,87.9154,0.3391,88.7473,271.3825,0,U,55160,999,17124,.69889475E-4,.4E-6,0
ONEWEB-0620,2023-004X,2026-07-14T21:50:44.216736,13.11416479,.00021362,87.8880,15.5554,90.7518,269.3855,0,U,55161,999,16946,-.14324321E-2,-.495E-5,0
ONEWEB-0621,2023-004Y,2026-07-14T22:29:49.475616,13.11418142,.00017332,87.8891,15.5414,83.4948,276.6377,0,U,55162,999,16944,.69568131E-3,.259E-5,0
ONEWEB-0622,2023-004Z,2026-07-14T22:37:09.250752,13.11417723,.00022146,87.8890,15.5432,72.5679,287.5691,0,U,55163,999,16943,.12454539E-2,.454E-5,0
ONEWEB-0623,2023-004AA,2026-07-14T21:16:53.307840,13.17648206,.00016729,87.9139,0.3673,67.7869,292.3440,0,U,55164,999,17123,.9892248E-5,.17E-6,0
ONEWEB-0624,2023-004AB,2026-07-14T20:36:36.468288,13.12929376,.0001765,87.8966,345.0784,91.0340,269.0991,0,U,55165,999,17170,.84852294E-3,.32E-5,0
ONEWEB-0625,2023-004AC,2026-07-14T21:02:17.985984,13.17650602,.00017499,87.9143,0.3654,95.7938,264.3393,0,U,55166,999,17122,-.18757675E-4,.6E-7,0
ONEWEB-0626,2023-004AD,2026-07-14T22:37:05.653920,13.17651211,.00021755,87.9145,0.3516,97.9184,262.2194,0,U,55167,999,17123,.39603653E-4,.28E-6,0
ONEWEB-0627,2023-004AE,2026-07-14T20:30:43.629696,13.17648428,.0001716,87.9145,0.3697,77.9100,282.2224,0,U,55168,999,17122,-.23149362E-4,.4E-7,0
ONEWEB-0628,2023-004AF,2026-07-14T22:14:22.252416,13.12444070,.0001518,87.8969,345.1376,75.6901,284.4396,0,U,55169,999,17167,.23992378E-3,.99E-6,0
ONEWEB-0629,2023-004AG,2026-07-14T21:44:50.299008,13.17649740,.00015521,87.9144,0.3552,91.4603,268.6706,0,U,55170,999,17123,.50827781E-4,.33E-6,0
ONEWEB-0631,2023-004AH,2026-07-14T20:56:05.682336,13.18686426,.00023323,87.9196,329.9309,89.7731,270.3668,0,U,55171,999,17332,-.68077344E-4,-.14E-6,0
ONEWEB-0709,2023-004AJ,2026-07-14T21:36:06.084288,13.11414835,.00026686,87.8881,15.5595,100.1506,259.9923,0,U,55172,999,16950,-.79699683E-3,-.27E-5,0
ONEWEB-0710,2023-004AK,2026-07-14T22:05:29.462496,13.17648629,.00018822,87.9145,0.3476,88.4495,271.6852,0,U,55173,999,17123,-.17418234E-4,.6E-7,0
ONEWEB-0711,2023-004AL,2026-07-14T22:44:28.759776,13.11417291,.00019098,87.8886,15.5381,68.2043,291.9288,0,U,55174,999,16947,.14726844E-2,.535E-5,0
ONEWEB-0713,2023-004AM,2026-07-14T21:21:27.899136,13.11414477,.00018569,87.8884,15.5518,78.6832,281.4505,0,U,55175,999,16945,.35345612E-3,.138E-5,0
ONEWEB-0715,2023-004AN,2026-07-14T21:14:08.686464,13.11414718,.00025416,87.8883,15.5532,91.6204,268.5215,0,U,55176,999,16949,.86555425E-3,.319E-5,0
ONEWEB-0716,2023-004AP,2026-07-14T20:06:25.415424,13.17647400,.00017475,87.9144,0.3668,98.4539,261.6791,0,U,55177,999,17122,-.31450642E-3,-.109E-5,0
ONEWEB-0717,2023-004AQ,2026-07-14T21:31:28.106112,13.17649832,.00020892,87.9155,0.3456,77.3853,282.7512,0,U,55178,999,17128,.44783254E-4,.3E-6,0
ONEWEB-0719,2023-004AR,2026-07-14T21:46:02.352288,13.17650841,.00016679,87.9155,0.3236,96.0372,264.0950,0,U,55179,999,17123,-.9420987E-5,.9E-7,0
ONEWEB-0530,2023-029A,2026-07-14T17:47:15.545760,13.20772414,.00018678,87.9180,268.9758,88.8997,271.2350,0,U,55796,999,16478,-.23629264E-3,-.83E-6,0
