ONEWEB-0572             
1 55151U 23004M   26195.85635676 -.00000004  00000+0 -44553-4 0  9995
2 55151  87.9144   0.3603 0002014  91.9359 268.2004 13.17651337171128
ONEWEB-0573             
1 55152U 23004N   26195.88576025 -.00000241  00000+0 -64351-3 0  9991
2 55152  87.9186 329.9598 0002778  96.2352 263.9097 13.18685185173345
ONEWEB-0588             
1 55153U 23004P   26195.87903140  .00000026  00000+0  34006-4 0  9997
2 55153  87.9185 329.9609 0002164  85.9903 274.1477 13.18686189173345
ONEWEB-0598             
1 55154U 23004Q   26195.93228861  .00000057  00000+0  12444-3 0  9990
2 55154  87.8885  15.5431 0002506  99.1861 260.9551 13.11418667169532
ONEWEB-0599             
1 55155U 23004R   26195.89347308  .00000017  00000+0  10309-4 0  9999
2 55155  87.9144   0.3515 0001872 100.2777 259.8566 13.17650292171132
ONEWEB-0614             
1 55156U 23004S   26195.92719666 -.00000170  00000+0 -51678-3 0  9999
2 55156  87.8883  15.5527 0001780  83.1589 276.9742 13.11418413169472
ONEWEB-0616             
1 55157U 23004T   26195.93565951 -.00000037  00000+0 -12921-3 0  9997
2 55157  87.9146   0.3472 0001771 122.4210 237.7093 13.17650927171353
ONEWEB-0617             
1 55158U 23004U   26195.91531686 -.00000501  00000+0 -14481-2 0  9992
2 55158  87.8886  15.5475 0001924  77.7087 282.4257 13.11418465169493
ONEWEB-0618             
1 55159U 23004V   26195.89848355  .00001946  00000+0  10707-3 0  9994
2 55159  86.9107 166.3827 0012124 175.8824 184.2518 15.13369888186451
ONEWEB-0619             
1 55160U 23004W   26195.89178562  .00000040  00000+0  69889-4 0  9992
2 55160  87.9154   0.3391 0001444  88.7473 271.3825 13.17650490171248
ONEWEB-0620             
1 55161U 23004X   26195.91023399 -.00000495  00000+0 -14324-2 0  9991
2 55161  87.8880  15.5554 0002136  90.7518 269.3855 13.11416479169467
ONEWEB-0621             
1 55162U 23004Y   26195.93737819  .00000259  00000+0  69568-3 0  9990
2 55162  87.8891  15.5414 0001733  83.4948 276.6377 13.11418142169440
ONEWEB-0622             
1 55163U 23004Z   26195.94246818  .00000454  00000+0  12455-2 0  9995
2 55163  87.8890  15.5432 0002214  72.5679 287.5691 13.11417723169438
ONEWEB-0623             
1 55164U 23004AA  26195.88672810  .00000017  00000+0  98922-5 0  9995
2 55164  87.9139   0.3673 0001672  67.7869 292.3440 13.17648206171234
ONEWEB-0624             
1 55165U 23004AB  26195.85875542  .00000320  00000+0  84852-3 0  9992
2 55165  87.8966 345.0784 0001765  91.0340 269.0991 13.12929376171700
ONEWEB-0625             
1 55166U 23004AC  26195.87659706  .00000006  00000+0 -18758-4 0  9992
2 55166  87.9143   0.3654 0001749  95.7938 264.3393 13.17650602171221
ONEWEB-0626             
1 55167U 23004AD  26195.94242655  .00000028  00000+0  39604-4 0  9998
2 55167  87.9145   0.3516 0002175  97.9184 262.2194 13.17651211171236
ONEWEB-0627             
1 55168U 23004AE  26195.85467164  .00000004  00000+0 -23149-4 0  9995
2 55168  87.9145   0.3697 0001716  77.9100 282.2224 13.17648428171224
ONEWEB-0628             
1 55169U 23004AF  26195.92664644  .00000099  00000+0  23992-3 0  9994
2 55169  87.8969 345.1376 0001518  75.6901 284.4396 13.12444070171671
ONEWEB-0629             
1 55170U 23004AG  26195.90613772  .00000033  00000+0  50828-4 0  9997
2 55170  87.9144   0.3552 0001552  91.4603 268.6706 13.17649740171235
ONEWEB-0631             
1 55171U 23004AH  26195.87228799 -.00000014  00000+0 -68077-4 0  9991
2 55171  87.9196 329.9309 0002332  89.7731 270.3668 13.18686426173324
ONEWEB-0709             
1 55172U 23004AJ  26195.90007042 -.00000270  00000+0 -79700-3 0  9990
2 55172  87.8881  15.5595 0002668 100.1506 259.9923 13.11414835169508
ONEWEB-0710             
1 55173U 23004AK  26195.92047989  .00000006  00000+0 -17418-4 0  9992
2 55173  87.9145   0.3476 0001882  88.4495 271.6852 13.17648629171236
ONEWEB-0711             
1 55174U 23004AL  26195.94755509  .00000535  00000+0  14727-2 0  9993
2 55174  87.8886  15.5381 0001909  68.2043 291.9288 13.11417291169470
ONEWEB-0713             
1 55175U 23004AM  26195.88990624  .00000138  00000+0  35346-3 0  9996
2 55175  87.8884  15.5518 0001856  78.6832 281.4505 13.11414477169450
ONEWEB-0715             
1 55176U 23004AN  26195.88482276  .00000319  00000+0  86555-3 0  9995
2 55176  87.8883  15.5532 0002541  91.6204 268.5215 13.11414718169492
ONEWEB-0716             
1 55177U 23004AP  26195.83779416 -.00000109  00000+0 -31451-3 0  9990
2 55177  87.9144   0.3668 0001747  98.4539 261.6791 13.17647400171228
ONEWEB-0717             
1 55178U 23004AQ  26195.89685308  .00000030  00000+0  44783-4 0  9997
2 55178  87.9155   0.3456 0002089  77.3853 282.7512 13.17649832171283
ONEWEB-0719             
1 55179U 23004AR  26195.90697167  .00000009  00000+0 -94210-5 0  9994
2 55179  87.9155   0.3236 0001667  96.0372 264.0950 13.17650841171231
ONEWEB-0530             
1 55796U 23029A   26195.74115215 -.00000083  00000+0 -23629-3 0  9994
2 55796  87.9180 268.9758 0001867  88.8997 271.2350 13.20772414164780
